SL-14 R/B               
1 21423U 91042B   26044.92095082  .00000428  00000+0  51225-4 0  9991
2 21423  82.4898 242.4757 0016152 323.5801  36.4313 14.81805765849557
ERS-1                   
1 21574U 91050A   26044.92442598  .00000379  00000+0  13603-3 0  9997
2 21574  98.7893  62.5612 0030882 272.8944  86.8709 14.39430043812318
ARIANE 40 R/B           
1 21610U 91050F   26044.68515682  .00000316  00000+0  10712-3 0  9995
2 21610  98.2064  97.8163 0004069 133.7912 226.3616 14.42875630815538
INTERCOSMOS 25          
1 21819U 91086A   26044.71501179  .00001466  00000+0  28367-3 0  9997
2 21819  82.6087 324.4956 1486887 168.5801 195.3373 12.11933217493780
SL-8 R/B                
1 21876U 92008B   26044.72484512  .00000034  00000+0  19345-4 0  9994
2 21876  82.9257 285.6074 0034103 199.6363 219.7666 13.75969729706120
SL-8 R/B                
1 21938U 92020B   26044.85647022  .00000098  00000+0  85904-4 0  9992
2 21938  82.9336 171.4512 0028952   7.0546 166.6286 13.75546160697853
USA 81                  
1 21949U 92023A   26044.69753094  .00000197  00000+0  65566-4 0  9998
2 21949  85.0119 145.2759 0002731  98.8758 261.2744 14.32359194 91357
COSMOS 2219             
1 22219U 92076A   26044.46993790  .00000093  00000+0  73495-4 0  9996
2 22219  71.0578  68.7008 0020136 239.9094 120.0032 14.14077040714955
SL-16 R/B               
1 22220U 92076B   26044.69476998 -.00000165  00000+0 -58378-4 0  9994
2 22220  70.9977 238.9184 0011274 139.7018 292.3498 14.16855674718435
COSMOS 2221             
1 22236U 92080A   26044.69432866  .00001719  00000+0  15046-3 0  9990
2 22236  82.5053 302.0630 0012738 274.9745  85.0022 14.96105633777201
SL-16 R/B               
1 22285U 92093B   26044.42896329  .00000199  00000+0  12641-3 0  9996
2 22285  71.0200  55.1959 0005297 319.7181  40.3549 14.15441969709722
COSMOS 2228             
1 22286U 92094A   26044.86007249  .00001991  00000+0  16992-3 0  9995
2 22286  82.5151 260.1302 0018703  26.2703 333.9464 14.97077292772496
