CCSDS_OMM_VERS = 2.0
CREATION_DATE  = 
ORIGINATOR     = 

OBJECT_NAME    = SL-14 R/B
OBJECT_ID      = 1991-042B
CENTER_NAME    = EARTH
REF_FRAME      = TEME
TIME_SYSTEM    = UTC
MEAN_ELEMENT_THEORY = SGP/SGP4

EPOCH          = 2026-02-13T22:06:10.150848
MEAN_MOTION    = 14.81805765
ECCENTRICITY   = .00161522
INCLINATION    = 82.4898
RA_OF_ASC_NODE = 242.4757
ARG_OF_PERICENTER = 323.5801
MEAN_ANOMALY   = 36.4313

EPHEMERIS_TYPE = 0
CLASSIFICATION_TYPE = U
NORAD_CAT_ID   = 21423
ELEMENT_SET_NO = 999
REV_AT_EPOCH   = 84955
BSTAR          = .51225108E-4
MEAN_MOTION_DOT = .428E-5
MEAN_MOTION_DDOT = 0

CCSDS_OMM_VERS = 2.0
CREATION_DATE  = 
ORIGINATOR     = 

OBJECT_NAME    = ERS-1
OBJECT_ID      = 1991-050A
CENTER_NAME    = EARTH
REF_FRAME      = TEME
TIME_SYSTEM    = UTC
MEAN_ELEMENT_THEORY = SGP/SGP4

EPOCH          = 2026-02-13T22:11:10.404672
MEAN_MOTION    = 14.39430043
ECCENTRICITY   = .00308826
INCLINATION    = 98.7893
RA_OF_ASC_NODE = 62.5612
ARG_OF_PERICENTER = 272.8944
MEAN_ANOMALY   = 86.8709

EPHEMERIS_TYPE = 0
CLASSIFICATION_TYPE = U
NORAD_CAT_ID   = 21574
ELEMENT_SET_NO = 999
REV_AT_EPOCH   = 81231
BSTAR          = .13603458E-3
MEAN_MOTION_DOT = .379E-5
MEAN_MOTION_DDOT = 0

CCSDS_OMM_VERS = 2.0
CREATION_DATE  = 
ORIGINATOR     = 

OBJECT_NAME    = ARIANE 40 R/B
OBJECT_ID      = 1991-050F
CENTER_NAME    = EARTH
REF_FRAME      = TEME
TIME_SYSTEM    = UTC
MEAN_ELEMENT_THEORY = SGP/SGP4

EPOCH          = 2026-02-13T16:26:37.549248
MEAN_MOTION    = 14.42875630
ECCENTRICITY   = .00040699
INCLINATION    = 98.2064
RA_OF_ASC_NODE = 97.8163
ARG_OF_PERICENTER = 133.7912
MEAN_ANOMALY   = 226.3616

EPHEMERIS_TYPE = 0
CLASSIFICATION_TYPE = U
NORAD_CAT_ID   = 21610
ELEMENT_SET_NO = 999
REV_AT_EPOCH   = 81553
BSTAR          = .10712288E-3
MEAN_MOTION_DOT = .316E-5
MEAN_MOTION_DDOT = 0

CCSDS_OMM_VERS = 2.0
CREATION_DATE  = 
ORIGINATOR     = 

OBJECT_NAME    = INTERCOSMOS 25
OBJECT_ID      = 1991-086A
CENTER_NAME    = EARTH
REF_FRAME      = TEME
TIME_SYSTEM    = UTC
MEAN_ELEMENT_THEORY = SGP/SGP4

EPOCH          = 2026-02-13T17:09:37.018656
MEAN_MOTION    = 12.11933217
ECCENTRICITY   = .14868876
INCLINATION    = 82.6087
RA_OF_ASC_NODE = 324.4956
ARG_OF_PERICENTER = 168.5801
MEAN_ANOMALY   = 195.3373

EPHEMERIS_TYPE = 0
CLASSIFICATION_TYPE = U
NORAD_CAT_ID   = 21819
ELEMENT_SET_NO = 999
REV_AT_EPOCH   = 49378
BSTAR          = .2836697E-3
MEAN_MOTION_DOT = .1466E-4
MEAN_MOTION_DDOT = 0

CCSDS_OMM_VERS = 2.0
CREATION_DATE  = 
ORIGINATOR     = 

OBJECT_NAME    = SL-8 R/B
OBJECT_ID      = 1992-008B
CENTER_NAME    = EARTH
REF_FRAME      = TEME
TIME_SYSTEM    = UTC
MEAN_ELEMENT_THEORY = SGP/SGP4

EPOCH          = 2026-02-13T17:23:46.618368
MEAN_MOTION    = 13.75969729
ECCENTRICITY   = .00341036
INCLINATION    = 82.9257
RA_OF_ASC_NODE = 285.6074
ARG_OF_PERICENTER = 199.6363
MEAN_ANOMALY   = 219.7666

EPHEMERIS_TYPE = 0
CLASSIFICATION_TYPE = U
NORAD_CAT_ID   = 21876
ELEMENT_SET_NO = 999
REV_AT_EPOCH   = 70612
BSTAR          = .19344683E-4
MEAN_MOTION_DOT = .34E-6
MEAN_MOTION_DDOT = 0

CCSDS_OMM_VERS = 2.0
CREATION_DATE  = 
ORIGINATOR     = 

OBJECT_NAME    = SL-8 R/B
OBJECT_ID      = 1992-020B
CENTER_NAME    = EARTH
REF_FRAME      = TEME
TIME_SYSTEM    = UTC
MEAN_ELEMENT_THEORY = SGP/SGP4

EPOCH          = 2026-02-13T20:33:19.027008
MEAN_MOTION    = 13.75546160
ECCENTRICITY   = .00289526
INCLINATION    = 82.9336
RA_OF_ASC_NODE = 171.4512
ARG_OF_PERICENTER = 7.0546
MEAN_ANOMALY   = 166.6286

EPHEMERIS_TYPE = 0
CLASSIFICATION_TYPE = U
NORAD_CAT_ID   = 21938
ELEMENT_SET_NO = 999
REV_AT_EPOCH   = 69785
BSTAR          = .85903994E-4
MEAN_MOTION_DOT = .98E-6
MEAN_MOTION_DDOT = 0

CCSDS_OMM_VERS = 2.0
CREATION_DATE  = 
ORIGINATOR     = 

OBJECT_NAME    = USA 81
OBJECT_ID      = 1992-023A
CENTER_NAME    = EARTH
REF_FRAME      = TEME
TIME_SYSTEM    = UTC
MEAN_ELEMENT_THEORY = SGP/SGP4

EPOCH          = 2026-02-13T16:44:26.673216
MEAN_MOTION    = 14.32359194
ECCENTRICITY   = .0002731
INCLINATION    = 85.0119
RA_OF_ASC_NODE = 145.2759
ARG_OF_PERICENTER = 98.8758
MEAN_ANOMALY   = 261.2744

EPHEMERIS_TYPE = 0
CLASSIFICATION_TYPE = U
NORAD_CAT_ID   = 21949
ELEMENT_SET_NO = 999
REV_AT_EPOCH   = 9135
BSTAR          = .6556642E-4
MEAN_MOTION_DOT = .197E-5
MEAN_MOTION_DDOT = 0

CCSDS_OMM_VERS = 2.0
CREATION_DATE  = 
ORIGINATOR     = 

OBJECT_NAME    = COSMOS 2219
OBJECT_ID      = 1992-076A
CENTER_NAME    = EARTH
REF_FRAME      = TEME
TIME_SYSTEM    = UTC
MEAN_ELEMENT_THEORY = SGP/SGP4

EPOCH          = 2026-02-13T11:16:42.634560
MEAN_MOTION    = 14.14077040
ECCENTRICITY   = .00201361
INCLINATION    = 71.0578
RA_OF_ASC_NODE = 68.7008
ARG_OF_PERICENTER = 239.9094
MEAN_ANOMALY   = 120.0032

EPHEMERIS_TYPE = 0
CLASSIFICATION_TYPE = U
NORAD_CAT_ID   = 22219
ELEMENT_SET_NO = 999
REV_AT_EPOCH   = 71495
BSTAR          = .73494899E-4
MEAN_MOTION_DOT = .93E-6
MEAN_MOTION_DDOT = 0

CCSDS_OMM_VERS = 2.0
CREATION_DATE  = 
ORIGINATOR     = 

OBJECT_NAME    = SL-16 R/B
OBJECT_ID      = 1992-076B
CENTER_NAME    = EARTH
REF_FRAME      = TEME
TIME_SYSTEM    = UTC
MEAN_ELEMENT_THEORY = SGP/SGP4

EPOCH          = 2026-02-13T16:40:28.126272
MEAN_MOTION    = 14.16855674
ECCENTRICITY   = .0011274
INCLINATION    = 70.9977
RA_OF_ASC_NODE = 238.9184
ARG_OF_PERICENTER = 139.7018
MEAN_ANOMALY   = 292.3498

EPHEMERIS_TYPE = 0
CLASSIFICATION_TYPE = U
NORAD_CAT_ID   = 22220
ELEMENT_SET_NO = 999
REV_AT_EPOCH   = 71843
BSTAR          = -.58378303E-4
MEAN_MOTION_DOT = -.165E-5
MEAN_MOTION_DDOT = 0

CCSDS_OMM_VERS = 2.0
CREATION_DATE  = 
ORIGINATOR     = 

OBJECT_NAME    = COSMOS 2221
OBJECT_ID      = 1992-080A
CENTER_NAME    = EARTH
REF_FRAME      = TEME
TIME_SYSTEM    = UTC
MEAN_ELEMENT_THEORY = SGP/SGP4

EPOCH          = 2026-02-13T16:39:49.996224
MEAN_MOTION    = 14.96105633
ECCENTRICITY   = .00127387
INCLINATION    = 82.5053
RA_OF_ASC_NODE = 302.0630
ARG_OF_PERICENTER = 274.9745
MEAN_ANOMALY   = 85.0022

EPHEMERIS_TYPE = 0
CLASSIFICATION_TYPE = U
NORAD_CAT_ID   = 22236
ELEMENT_SET_NO = 999
REV_AT_EPOCH   = 77720
BSTAR          = .15046187E-3
MEAN_MOTION_DOT = .1719E-4
MEAN_MOTION_DDOT = 0

CCSDS_OMM_VERS = 2.0
CREATION_DATE  = 
ORIGINATOR     = 

OBJECT_NAME    = SL-16 R/B
OBJECT_ID      = 1992-093B
CENTER_NAME    = EARTH
REF_FRAME      = TEME
TIME_SYSTEM    = UTC
MEAN_ELEMENT_THEORY = SGP/SGP4

EPOCH          = 2026-02-13T10:17:42.428256
MEAN_MOTION    = 14.15441969
ECCENTRICITY   = .00052973
INCLINATION    = 71.0200
RA_OF_ASC_NODE = 55.1959
ARG_OF_PERICENTER = 319.7181
MEAN_ANOMALY   = 40.3549

EPHEMERIS_TYPE = 0
CLASSIFICATION_TYPE = U
NORAD_CAT_ID   = 22285
ELEMENT_SET_NO = 999
REV_AT_EPOCH   = 70972
BSTAR          = .12641086E-3
MEAN_MOTION_DOT = .199E-5
MEAN_MOTION_DDOT = 0

CCSDS_OMM_VERS = 2.0
CREATION_DATE  = 
ORIGINATOR     = 

OBJECT_NAME    = COSMOS 2228
OBJECT_ID      = 1992-094A
CENTER_NAME    = EARTH
REF_FRAME      = TEME
TIME_SYSTEM    = UTC
MEAN_ELEMENT_THEORY = SGP/SGP4

EPOCH          = 2026-02-13T20:38:30.263136
MEAN_MOTION    = 14.97077292
ECCENTRICITY   = .00187034
INCLINATION    = 82.5151
RA_OF_ASC_NODE = 260.1302
ARG_OF_PERICENTER = 26.2703
MEAN_ANOMALY   = 333.9464

EPHEMERIS_TYPE = 0
CLASSIFICATION_TYPE = U
NORAD_CAT_ID   = 22286
ELEMENT_SET_NO = 999
REV_AT_EPOCH   = 77249
BSTAR          = .1699208E-3
MEAN_MOTION_DOT = .1991E-4
MEAN_MOTION_DDOT = 0

